ONEWEB-0043             
1 45149U 20008U   24106.15492698  .00000699  00000+0  19654-2 0  9990
2 45149  87.8994 193.8700 0001837  86.8951 273.2387 13.10375282205106
ONEWEB-0044             
1 45150U 20008V   24105.80135494  .00000189  00000+0  50430-3 0  9993
2 45150  87.8987 193.9350 0001692 102.5117 257.6200 13.10375069204574
ONEWEB-0045             
1 45151U 20008W   24106.21020525 -.00000003  00000+0 -43652-4 0  9994
2 45151  87.9022 178.7553 0001918 102.9247 257.2095 13.11413524207257
ONEWEB-0047             
1 45152U 20008X   24106.17648879 -.00000076  00000+0 -25406-3 0  9994
2 45152  87.8992 193.8640 0001887  98.5504 261.5837 13.10371915205132
ONEWEB-0048             
1 45153U 20008Y   24106.17149748  .00000188  00000+0  50229-3 0  9999
2 45153  87.8994 193.8797 0001866  96.8603 263.2737 13.10376864204726
ONEWEB-0049             
1 45154U 20008Z   24105.79138023 -.00000021  00000+0 -95138-4 0  9998
2 45154  87.9000 193.9316 0002357  88.7975 271.3422 13.10369579204122
ONEWEB-0051             
1 45155U 20008AA  24106.20858145  .00000082  00000+0  19482-3 0  9992
2 45155  87.9022 178.7970 0002049 105.3099 254.8255 13.11413908207934
ONEWEB-0052             
1 45156U 20008AB  24105.78806378  .00000073  00000+0  17208-3 0  9990
2 45156  87.8990 193.9091 0002235  89.3232 270.8152 13.10368432204030
